#aV2010  5 20  0  0   .00000000      96 DD+AD WGS84 FIT  NGA
## 1584 345600.00000000   900.00000000 55336  .0000000000000
+   31     1  2  3  4  5  6  7  8  9 10 11 12 13 14 15 16 17
+         18 19 20 21 22 23 24 26 27 28 29 30 31 32  0  0  0
+          0  0  0  0  0  0  0  0  0  0  0  0  0  0  0  0  0
+          0  0  0  0  0  0  0  0  0  0  0  0  0  0  0  0  0
+          0  0  0  0  0  0  0  0  0  0  0  0  0  0  0  0  0
++         0  0  0  0  0  0  0  0  0  0  0  0  0  0  0  0  0
++         0  0  0  0  0  0  0  0  0  0  0  0  0  0  0  0  0
++         0  0  0  0  0  0  0  0  0  0  0  0  0  0  0  0  0
++         0  0  0  0  0  0  0  0  0  0  0  0  0  0  0  0  0
++         0  0  0  0  0  0  0  0  0  0  0  0  0  0  0  0  0
%c cc cc ccc ccc cccc cccc cccc cccc ccccc ccccc ccccc ccccc
%c cc cc ccc ccc cccc cccc cccc cccc ccccc ccccc ccccc ccccc
%f  0.0000000  0.000000000  0.00000000000  0.000000000000000
%f  0.0000000  0.000000000  0.00000000000  0.000000000000000
%i    0    0    0    0      0      0      0      0         0
%i    0    0    0    0      0      0      0      0         0
/*      NGA, ST. LOUIS,MO.                                  
/*   EPHEMERIS COMPUTED FROM  3 DAYS OF DATA                
/* CCCCCCCCCCCCCCCCCCCCCCCCCCCCCCCCCCCCCCCCCCCCCCCCCCCCCCCCC
/* CCCCCCCCCCCCCCCCCCCCCCCCCCCCCCCCCCCCCCCCCCCCCCCCCCCCCCCCC
*  2010  5 20 21 45   .00000000                                                 
P  1  15592.499969  -2554.664690  21269.356665   -122.019951                    
V  1  13333.840497  23732.139840  -6742.836991      -.040266                    
P  2 -12216.504966  13963.207393  18811.528737    257.448572                    
V  2 -24196.668039  -1467.440070 -15061.978674       .034384                    
P  3   8956.032397 -24758.688938  -1855.407634    557.656204                    
V  3   4598.323179   -189.477085  31087.225819       .050110                    
P  4 -24429.819226   6345.133095   8661.743528     86.258081                    
V  4 -11162.108391  -2952.426942 -28393.774385       .082953                    
P  5  -1972.105538  20257.338900  17002.392263     -3.679671                    
V  5 -12543.613848 -17758.426043  19763.918070      -.012160                    
P  6  13459.735234 -22705.216812   2301.854017    633.881880                    
V  6   2109.920252   4138.053029  31065.839957      -.114235                    
P  7 -23819.463461  -6739.002890   9841.510048      -.628023                    
V  7  12446.319466  -2077.415096  28502.361897      -.002703                    
P  8 -26748.623309   -294.840804  -2359.141942      5.449490                    
V  8  -2825.562111  -1528.271646  31918.255593       .001306                    
P  9   6359.396965  14473.944858 -21895.170155      7.713478                    
V  9 -26429.512130   1192.862845  -7021.566270       .022132                    
P 10 -10164.132679  12360.877603  20956.180151    -42.972358                    
V 10 -13866.614420 -23335.621193   7317.963941      -.006950                    
P 11 -12180.766373 -13526.590262 -19691.995477    -63.795810                    
V 11  23677.470201  -7140.921161  -9502.930622      -.023540                    
P 12  11846.999443  23769.305289  -2107.229221   -113.171748                    
V 12  -3397.468273  -1199.106417 -31726.856499       .042565                    
P 13 -11205.529076  -9197.288716  22114.167740    304.230699                    
V 13  15855.587307 -23482.462249  -1750.762705      -.004025                    
P 14  18780.838925 -10729.852182 -15191.339249     47.839297                    
V 14  -9172.948329  17318.570406 -23488.869555       .043694                    
P 15  -4159.832415  23735.338819 -11026.282367   -269.875565                    
V 15  -9178.584436  11011.319644  27248.504464       .059661                    
P 16   7015.442520 -15806.453392  20120.661269    -73.439768                    
V 16  13186.448531  21858.551076  12872.420591      -.037383                    
P 17 -18798.756325   9539.913131 -15922.297716    151.956182                    
V 17   8810.077257 -18627.888083 -21628.075831       .023277                    
P 18  18569.872430  13868.946885 -13036.008237     69.492465                    
V 18   5863.098492  16064.110508  24549.363690       .024430                    
P 19   5075.075775 -22803.182176 -12307.865851    -36.341682                    
V 19  11092.332681 -11565.017196  26233.163906      -.026986                    
P 20 -13906.159041 -22660.487088   -265.389415     55.835648                    
V 20   3072.411920  -1707.187326 -31196.330374      -.005624                    
P 21  25757.288534   4936.031282   6291.542237    -61.496558                    
V 21  -7488.875646   2883.166265  29374.492708      -.025682                    
P 22  17414.914415   1331.798440 -19872.117707    171.650188                    
V 22  11148.100104  23145.338120  11138.313914      -.009838                    
P 23  -5647.366368 -16955.915775  19513.855421    370.112721                    
V 23  13734.898373 -20837.866282 -14421.048528      -.013866                    
P 24  26107.780763  -1469.670466  -3829.765157    289.061376                    
V 24   4836.025350   3579.104812  31146.562375       .033826                    
P 26   1895.045885  19183.494575 -18599.593638    -54.556680                    
V 26 -13471.848455  18203.684849  18353.466697      -.051572                    
P 27   2729.811006  14348.412351 -21511.850315    153.737075                    
V 27 -28856.611369   1729.910542  -2282.867903       .034003                    
P 28 -17379.192521  -4665.032933 -19157.773290    -15.723314                    
V 28 -10900.368648 -22786.566353  14787.746103       .009582                    
P 29  11766.800826   9915.701683  21746.951535    121.288331                    
V 29 -14548.684259  23202.210931  -2678.961920       .027979                    
P 30  17781.083711  18219.598470   7274.629392    244.474631                    
V 30   2883.637173   9739.787146 -29774.181569       .034826                    
P 31  22865.556980  -7743.550873  11480.954056    -35.480196                    
V 31  14173.535216   1792.239094 -27343.408664       .020250                    
P 32  -6580.404915 -24942.619026  -6687.541645     24.974051                    
V 32   6051.946751   6944.766538 -29977.966068      -.084608                    
EOF
